,LoanNr_ChkDgt,Name,City,State,Zip,Bank,BankState,NAICS,ApprovalDate,ApprovalFY,Term,NoEmp,NewExist,CreateJob,RetainedJob,FranchiseCode,UrbanRural,RevLineCr,LowDoc,ChgOffDate,DisbursementDate,DisbursementGross,BalanceGross,MIS_Status,ChgOffPrinGr,GrAppv,SBA_Appv
611,1004503009,SMITHFIELD GLASS INC,DANIELSON,CT,6239,,,0,7-Jul-80,1980,180,30,2.0,0,0,0,0,N,N,22-May-90,,0.0,$0.00 ,,"$144,461.00 ","$300,000.00 ","$300,000.00 "
740,1005273003,"GENERAL SOLAR COMPANY, INC.",SIOUX CITY,IA,51111,,,0,3-Jul-80,1980,120,3,1.0,0,0,0,0,N,N,8-Feb-90,,0.0,$0.00 ,,"$142,666.00 ","$350,000.00 ","$350,000.00 "
3910,1026444001,VANEX FIRE SYSTEMS,MONROE,MI,48161,"PNC BANK, NATIONAL ASSOCIATION",OH,541330,11-Mar-97,1997,12,9,1.0,0,0,1,0,N,N,,31-May-97,0.0,$0.00 ,,$0.00 ,"$200,000.00 ","$150,000.00 "
4107,1028043007,PETIT BOIS RACQUET CLUB,BILOXI,MS,39531,REGIONS BANK,AL,0,21-Aug-80,1980,228,12,1.0,0,0,0,0,N,N,20-Dec-88,6-Mar-81,0.0,$0.00 ,,$0.00 ,"$499,200.00 ","$449,280.00 "
6569,1044653002,SON'S PARTY STORE,KENTWOOD,MI,49508,,,0,11-Sep-80,1980,180,1,2.0,0,0,0,0,N,N,27-Oct-93,,0.0,$0.00 ,,"$18,775.00 ","$20,000.00 ","$20,000.00 "
9602,1066623005,"ENERGY WORKS, LTD",ENGLEWOOD,CO,80110,,,0,8-Oct-80,1981,120,5,1.0,0,0,0,0,N,N,1-May-89,,0.0,$0.00 ,,"$133,365.00 ","$150,000.00 ","$150,000.00 "
10412,1073273005,CUT N STYLE BY MARIETTA,"IMPERIAL,",NE,69033,,,0,10-Oct-80,1981,120,3,2.0,0,0,0,0,N,N,1-Feb-89,,0.0,$0.00 ,,"$6,642.00 ","$10,800.00 ","$10,800.00 "
11824,1084503008,WANDA BREWER,JEFFERSONVILLE,IN,47130,,,0,30-Oct-80,1981,150,1,2.0,0,0,0,0,N,N,14-Sep-92,,0.0,$0.00 ,,$568.00 ,"$10,000.00 ","$10,000.00 "
13507,1096603000,TINY TREASURES % TOLENO,LONG VALLEY,NJ,7853,,,0,10-Nov-80,1981,144,1,1.0,0,0,0,0,N,N,20-Nov-91,,0.0,$0.00 ,,"$7,380.00 ","$16,000.00 ","$16,000.00 "
15254,1110613000,SATELLITE HAIR CENTER,HOUSTON,TX,77018,,,0,1-Dec-80,1981,84,4,1.0,0,0,0,0,N,N,11-Apr-91,,0.0,$0.00 ,,"$7,722.00 ","$20,000.00 ","$20,000.00 "
15266,1110713006,SMALL TOWN SOUNDS,SICKLERVILLE,NJ,8081,,,0,3-Dec-80,1981,84,2,1.0,0,0,0,0,N,N,26-Jun-90,,0.0,$0.00 ,,$557.00 ,"$10,000.00 ","$10,000.00 "
15547,1112804009,JAKE & OLIVER'S,BALA CYNWYD,PA,19004,"TD BANK, NATIONAL ASSOCIATION",DE,0,9-Apr-97,1997,84,35,2.0,0,0,1,0,N,Y,,,0.0,$0.00 ,,$0.00 ,"$100,000.00 ","$80,000.00 "
16630,1120633010,DAWSON LAW OFFICE,REDFIELD,SD,57469,,,0,11-Dec-80,1981,120,2,2.0,0,0,0,0,N,N,16-Aug-93,,0.0,$0.00 ,,$199.00 ,"$18,000.00 ","$18,000.00 "
18142,1132983007,"COMBINED DYNAMICS, INC",ROSEVILLE,MI,48066,COMM. CR. FINAN CORP,MD,0,17-Dec-80,1981,60,1,1.0,0,0,0,0,N,N,23-Aug-91,6-Feb-81,0.0,$0.00 ,,"$7,534.00 ","$150,000.00 ","$135,000.00 "
18429,1135075003,FRANCES J AMELIO DBA AMELIO RE,MIDDLETOWN,NY,10940,CITIZENS BANK NATL ASSOC,RI,531210,20-Dec-04,2005,84,1,1.0,0,0,1,1,N,N,,31-Jan-05,0.0,$0.00 ,,$0.00 ,"$9,400.00 ","$4,700.00 "
22399,1166553005,THE FAMILY ART COMPANY,CLYDE,NY,14433,,,0,6-Feb-81,1981,84,1,1.0,0,0,0,0,N,N,6-Jun-90,,0.0,$0.00 ,,"$4,308.00 ","$14,000.00 ","$14,000.00 "
23239,1174153003,CAPRICORN COMMUNICATIONS,KISSIMMEE,FL,32741,,,0,17-Feb-81,1981,84,1,2.0,0,0,0,0,N,N,20-Nov-89,,0.0,$0.00 ,,$380.00 ,"$20,000.00 ","$20,000.00 "
23514,1176562005,DR. PAUL BENGSTON,BLACKDUCK,MN,56630,WELLS FARGO BANK NATL ASSOC,MN,0,9-Jun-78,1978,180,2,2.0,0,0,0,0,N,N,12-May-95,,0.0,$0.00 ,,$19.00 ,"$39,000.00 ","$29,250.00 "
24327,1182703002,DILLINGHAM GRAPHICS,ROCK HILL,SC,29730,,,0,23-Feb-81,1981,246,12,1.0,0,0,0,0,N,N,15-Apr-98,,0.0,$0.00 ,,"$4,499.00 ","$20,000.00 ","$20,000.00 "
24824,1186495000,COUTURIERE DESIGNS INC.  DBA F,ALBANY,NY,12203,CITIZENS BANK NATL ASSOC,RI,453220,9-Feb-05,2005,84,1,1.0,0,1,1,1,N,N,,31-Mar-05,0.0,$0.00 ,,$0.00 ,"$43,000.00 ","$21,500.00 "
24892,1187041001,GENESEE FUNERAL HOMES INC,ROCHESTER,NY,14619,FIRST NIAGARA BANK NATL ASSOC,NY,0,23-May-72,1972,180,2,2.0,0,0,0,0,N,N,26-Jan-89,,0.0,$0.00 ,,$150.00 ,"$90,000.00 ","$60,000.00 "
25290,1189575006,DIABILITY CARE MANAAGEMENT PRO,WILKES BARRE,PA,18702,CITIZENS BANK NATL ASSOC,RI,532490,10-Feb-05,2005,84,6,2.0,1,7,1,1,N,N,,31-May-06,0.0,$0.00 ,,$0.00 ,"$50,000.00 ","$25,000.00 "
25331,1189823006,HELEN G GREIF,PHILA,PA,19102,,,0,9-Mar-81,1981,102,1,2.0,0,0,0,0,N,N,24-Jan-90,,0.0,$0.00 ,,"$18,817.00 ","$20,000.00 ","$20,000.00 "
26903,1201925008,DOUGLAS M MERCURIO DBA LAW OFF,TEWKSBURY,MA,1876,CITIZENS BANK NATL ASSOC,RI,541110,22-Feb-05,2005,84,1,2.0,0,1,1,2,N,N,,31-May-06,0.0,$0.00 ,,$0.00 ,"$25,000.00 ","$12,500.00 "
27459,1206553000,AS YOU LIKE IT,DEARBORN,MI,48124,,,0,1-Apr-81,1981,249,1,1.0,0,0,0,0,N,N,26-May-93,,0.0,$0.00 ,,"$10,336.00 ","$20,000.00 ","$20,000.00 "
28760,1216173008,GLIDDEN CAFE,GLIDDEN,IA,51443,FIRST BANK AND TRUST,LA,0,15-Apr-81,1981,204,3,1.0,0,0,0,0,N,N,5-Jul-91,,0.0,$0.00 ,,"$21,677.00 ","$65,000.00 ","$48,750.00 "
29179,1219613004,T & T SHIRTS ART,EAST ORANGE,NJ,7017,,,0,21-Apr-81,1981,120,1,1.0,0,0,0,0,N,N,18-Mar-92,,0.0,$0.00 ,,"$12,846.00 ","$20,000.00 ","$20,000.00 "
29418,1221513008,HORIZON ENGINEERING,JULIAN,CA,92036,,,0,22-Apr-81,1981,84,2,2.0,0,0,0,0,N,N,21-Sep-90,,0.0,$0.00 ,,"$17,220.00 ","$20,000.00 ","$20,000.00 "
29644,1223315003,S & D HOME IMPROVEMENTS INC,BROOKLYN,NY,11234,JPMORGAN CHASE BANK NATL ASSOC,IL,236118,9-Mar-05,2005,84,2,1.0,14,2,1,1,N,N,,31-Mar-05,0.0,$0.00 ,,$0.00 ,"$50,000.00 ","$25,000.00 "
30733,1231813008,PIZZA QUEEN,DETROIT,MI,48206,,,0,8-May-81,1981,120,24,1.0,0,0,24005,0,N,N,15-Sep-92,,0.0,$0.00 ,,"$49,957.00 ","$50,000.00 ","$50,000.00 "
33288,1252115001,"426, Inc.",CHICAGO,IL,60622,JPMORGAN CHASE BANK NATL ASSOC,IL,541810,31-Mar-05,2005,84,1,2.0,0,1,1,1,N,N,,30-Jun-05,0.0,$0.00 ,,$0.00 ,"$25,000.00 ","$12,500.00 "
33902,1257153009,"SUNPAL INDUSTRIES, INC.",PIEDMONT,SC,29673,,,0,1-Jul-81,1981,180,10,1.0,0,0,0,0,N,N,28-Mar-89,,0.0,$0.00 ,,"$147,694.00 ","$350,000.00 ","$350,000.00 "
34223,1259753005,CLAYTON TITLE SERVICES INC.,CLAYTON,NM,88415,,,0,8-Jul-81,1981,108,1,1.0,0,0,0,0,N,N,11-Dec-90,,0.0,$0.00 ,,"$8,068.00 ","$20,000.00 ","$20,000.00 "
34378,1261013005,PATRICIA'S COIN OP,LLANO,TX,78643,,,0,8-Jul-81,1981,108,1,2.0,0,0,0,0,N,N,15-Jul-94,,0.0,$0.00 ,,"$12,307.00 ","$20,000.00 ","$20,000.00 "
35331,1269383005,CHATEAU DE CHANTE,LOS ANGELES,CA,90027,,,0,22-Jul-81,1981,84,1,1.0,0,0,0,0,N,N,3-Jun-91,,0.0,$0.00 ,,"$13,111.00 ","$14,000.00 ","$14,000.00 "
35517,1270833006,SO. JERSEY DANCE/MERRYLEES,PENNSVILLE,,8070,,,0,28-Jul-81,1981,120,1,2.0,0,0,0,0,N,N,5-Mar-90,,0.0,$0.00 ,,"$11,364.00 ","$15,000.00 ","$15,000.00 "
35751,1272693005,SOLAR TEMP DEVELOPMENT CO,SACRAMENTO,CA,95827,,,0,29-Jul-81,1981,90,6,1.0,0,0,0,0,N,N,23-May-90,,0.0,$0.00 ,,"$187,765.00 ","$237,600.00 ","$237,600.00 "
37153,1284693002,COUNTRY CREEK FLORAL,WAUNAKEE,WI,53597,,,0,25-Aug-81,1981,120,2,2.0,0,0,0,0,N,N,3-Feb-95,,0.0,$0.00 ,,$371.00 ,"$200,000.00 ","$200,000.00 "
37308,1286033007,LOOKS BY LESLIE,BILLEERICA,MA,1862,,,0,31-Aug-81,1981,120,5,2.0,0,0,0,0,N,N,19-Sep-91,,0.0,$0.00 ,,"$20,000.00 ","$20,000.00 ","$20,000.00 "
38920,1300720000,SHANGRI LA HOTEL INC,ELLENVILLE      N Y,NY,12428,BANK OF AMERICA NATL ASSOC,NY,0,7-Dec-61,1962,300,0,0.0,0,0,0,0,N,N,16-Feb-90,,0.0,$0.00 ,,"$2,613.00 ","$100,000.00 ","$90,000.00 "
44285,1343495005,"CONTINENTAL CLEAN AIR, INC.",WAKEFIELD,MA,1880,CITIZENS BANK NATL ASSOC,RI,561790,17-Jun-05,2005,84,10,1.0,0,13,1,1,N,N,,30-Sep-05,0.0,$0.00 ,,$0.00 ,"$90,000.00 ","$45,000.00 "
44932,1348280009,CATSKILL MILLS INC,WALTON N Y,NY,13856,"NBT BANK, NATIONAL ASSOCIATION",NY,0,27-Nov-64,1965,252,0,0.0,0,0,0,0,N,N,3-Apr-89,,0.0,$0.00 ,,"$55,625.00 ","$150,000.00 ","$127,500.00 "
45531,1352875003,"MOM JEWELRY OUTLET, INC DBA F",MORGANTOWN,PA,19543,CITIZENS BANK NATL ASSOC,RI,448310,24-Jun-05,2005,84,1,1.0,0,1,0,1,N,N,,31-Jul-05,0.0,$0.00 ,,$0.00 ,"$21,000.00 ","$10,500.00 "
50705,1390504002,"K.C. BUSINESS MACHINES, INC.",NORTH KANSAS CITY,MO,64116,BLUE RIDGE BANK AND TRUST CO.,MO,0,30-Jun-97,1997,84,3,1.0,0,0,1,0,N,N,,,0.0,$0.00 ,,$0.00 ,"$110,000.00 ","$82,500.00 "
53650,1411185009,Law Office of Cynthia A. Strom,ASHEVILLE,NC,28803,BRANCH BK. & TR CO,NC,922130,12-Aug-05,2005,84,10,1.0,0,10,0,2,N,N,,31-Jan-06,0.0,$0.00 ,,$0.00 ,"$50,000.00 ","$25,000.00 "
60475,1457384009,ROSIE'S CAFE INC.,INDEPENDENCE,MD,64055,BANK OF AMERICA NATL ASSOC,NC,0,4-Aug-97,1997,60,7,1.0,0,0,1,0,Y,N,,,0.0,$0.00 ,,$0.00 ,"$12,000.00 ","$6,000.00 "
67782,1511494009,"CENTRAL DENTAL PROSTHETICS,INC",NORTH MIAMI,FL,33168,FDIC/OCEANMARK BANK,TX,339116,27-Aug-97,1997,5,1,2.0,0,0,1,0,N,Y,27-Apr-06,,0.0,$0.00 ,,"$11,290.00 ","$17,000.00 ","$13,600.00 "
71101,1534754007,"EXPRESS BEAUTY SERVICE, INC",SMYRNA,GA,30080,SOUTH STATE BANK,GA,0,8-Sep-97,1997,84,9,2.0,0,0,1,0,N,Y,,,0.0,$0.00 ,,$0.00 ,"$100,000.00 ","$80,000.00 "
86221,1642723010,"MR. WHITBY'S JUICYBURGER, INC.",JACKSON,MS,39213,TRUSTMARK NATIONAL BANK,MS,0,29-Jul-83,1983,180,5,2.0,0,0,0,0,N,N,8-Jan-91,,0.0,$0.00 ,,"$88,025.00 ","$170,000.00 ","$127,500.00 "
92615,1688052009,CAPITOL INSULATION CO INC,DENVER,CO,80204,,,0,14-Nov-79,1980,180,12,1.0,0,0,0,0,N,N,29-May-92,,0.0,$0.00 ,,"$254,000.00 ","$250,000.00 ","$250,000.00 "
95367,1707623006,COURTESY AUTO PARK,PORTLAND,OR,97214,,,0,30-Sep-83,1983,60,7,2.0,0,0,0,0,N,N,12-Dec-88,,0.0,$0.00 ,,"$13,599.00 ","$25,000.00 ","$25,000.00 "
105849,1777733010,STANTON E & CHRISTINE L THOMAS,HANCOCK,WI,54943,"M&I, A BRANCH OF",WI,0,20-Dec-83,1984,300,3,1.0,0,0,0,0,N,N,26-Jan-90,,0.0,$0.00 ,,"$158,981.00 ","$366,000.00 ","$274,500.00 "
129796,1947303003,INDIAN HILLS DEVELOPMENT,GLENROCK,WY,82637,WELLS FARGO BANK NATL ASSOC,WY,0,2-Jul-84,1984,180,10,2.0,0,0,0,0,N,N,16-Sep-91,19-Mar-85,0.0,$0.00 ,,"$650,543.00 ","$490,000.00 ","$392,000.00 "
130128,1949623009,LAKE LURE INN LTD.,LAKE LURE,NC,28746,CITIZENS TRUST BANK,GA,0,3-Jul-84,1984,240,6,2.0,0,0,0,0,N,N,17-Aug-91,,0.0,$0.00 ,,"$590,112.00 ","$640,000.00 ","$448,000.00 "
139685,2020481007,"MOORE, JIM & RACHEL",PANAMA CITY,FL,32404,TRUSTMARK NATIONAL BANK,FL,0,10-Mar-72,1972,294,7,1.0,0,0,0,0,N,N,12-Apr-90,,0.0,$0.00 ,,$108.00 ,"$50,000.00 ","$37,500.00 "
140183,2023951001,BILLMANS RESTAURANT,SUNBURY,PA,17801,SWINEFORD NATL BANK MIDDLEBURG,PA,0,13-Sep-72,1973,180,14,1.0,0,0,0,0,N,N,20-Sep-91,,0.0,$0.00 ,,"$25,932.00 ","$170,000.00 ","$127,500.00 "
151671,2106565003,James E Siegel & Associates PL,FOREST HILLS,NY,11375,JPMORGAN CHASE BANK NATL ASSOC,IL,541110,3-Nov-06,2007,84,2,2.0,0,2,0,1,N,N,,30-Nov-06,0.0,$0.00 ,,$0.00 ,"$25,000.00 ","$12,500.00 "
154420,2124313010,TOWER PIZZA PARLOR,OKLAHOMA CITY,OK,73111,FDIC/MEDICAL CENTER STATE BANK,OK,0,13-Dec-84,1985,84,10,2.0,0,0,0,0,N,N,11-May-92,6-Mar-85,0.0,$0.00 ,,"$49,000.00 ","$69,000.00 ","$34,500.00 "
163496,2180003005,CALIFORNIA WATERBEDS,CLOVIS,NM,88101,WESTERN BANK OF CLOVIS,NM,0,28-Feb-85,1985,180,4,1.0,0,0,0,0,N,N,26-May-92,17-Apr-85,0.0,$0.00 ,,"$161,644.00 ","$274,000.00 ","$246,600.00 "
172787,2236132002,PLA-TIME SCHOOL,MCALLEN,TX,78501,,,0,11-Feb-80,1980,120,7,1.0,0,0,0,0,N,N,3-May-89,,0.0,$0.00 ,,"$7,701.00 ","$20,000.00 ","$20,000.00 "
179661,2279745007,"YUMMY, INC. DBA YUMMY DINER",PHILADELPHIA,PA,19139,CITIZENS BANK NATL ASSOC,RI,722110,15-Feb-07,2007,84,4,1.0,1,5,0,1,N,N,,31-Mar-08,0.0,$0.00 ,,$0.00 ,"$50,000.00 ","$25,000.00 "
187529,2330583000,"BREWER, JOHN & BEVERLY",HONOLULU,HI,96819,,,0,27-Sep-85,1985,240,120,1.0,0,0,0,0,N,N,,,0.0,$0.00 ,,$0.00 ,"$500,000.00 ","$500,000.00 "
195112,2377674007,SKY CHEVRON #2 @ COLES CORNER,LEAVENWORTH,WA,98288,MUFG UNION BANK NATL ASSOC,WA,0,7-Oct-98,1999,300,15,2.0,0,0,1,0,N,N,,,0.0,$0.00 ,,$0.00 ,"$312,000.00 ","$234,000.00 "
226351,2600052010,BENEC INDUSTRIES INC,NEW YORK,NY,10010,,,0,7-Jul-80,1980,144,4,1.0,0,0,0,0,N,N,13-Feb-90,,0.0,$0.00 ,,"$63,074.00 ","$75,000.00 ","$75,000.00 "
234335,2657194010,"READI-MADE FOODS, INC",TULARE,CA,93274,BANK OF THE SIERRA,CA,0,24-Dec-98,1999,12,4,2.0,0,0,1,0,Y,N,,31-Jan-00,0.0,$0.00 ,,$0.00 ,"$50,000.00 ","$40,000.00 "
238799,2686642010,"LOV-N-KERR, INC",SPRINGFIELD,IL,62707,,,0,29-Jan-81,1981,180,4,1.0,0,0,0,0,N,N,29-Aug-94,,0.0,$0.00 ,,"$73,247.00 ","$70,000.00 ","$70,000.00 "
243775,2719492010,JOAN E. SOUSA,SAN ANTONIO,TX,78239,,,0,31-Jan-80,1980,84,2,2.0,0,0,0,0,N,N,13-Jun-91,,0.0,$0.00 ,,"$1,563.00 ","$20,000.00 ","$20,000.00 "
248852,2752114006,FLOWER BARN STATUARY,SOUTH EGREMONT,MA,1258,SALISBURY BANK & TRUST COMPANY,CT,421310,1-Feb-99,1999,300,2,1.0,0,0,1,0,0,Y,,,0.0,$0.00 ,,$0.00 ,"$150,000.00 ","$112,500.00 "
264910,2852204006,TOTAL HEALTH CHIROPRACTIC,FARGO,ND,58103,BREMER BANK NATL ASSOC,MN,621310,24-Mar-99,1999,84,1,2.0,0,0,1,0,0,Y,,,0.0,$0.00 ,,$0.00 ,"$45,000.00 ","$36,000.00 "
277747,2928405000,JOHN & BONNIE CAROTHERS,ALTOONA,PA,16602,CITIZENS BANK OF PENNSYLVANIA,PA,442210,29-Jan-08,2008,180,3,1.0,0,3,0,2,N,N,,31-Mar-08,0.0,$0.00 ,,$0.00 ,"$25,000.00 ","$12,500.00 "
311564,3149182002,GINA COSMETICS CO,LARGO,FL,34649,,,0,7-Feb-80,1980,120,1,2.0,0,0,0,0,N,N,11-Jul-91,,0.0,$0.00 ,,"$2,684.00 ","$20,000.00 ","$20,000.00 "
311609,3149402007,PANTS PLUS,BLACKWOOD,NJ,8012,,,0,19-Feb-80,1980,140,1,1.0,0,0,0,0,N,N,1-Nov-91,,0.0,$0.00 ,,"$2,747.00 ","$10,000.00 ","$10,000.00 "
320942,3214742001,LADY CATHERINES MATERNITY,ALCOA,TN,37701,,,0,18-Jan-80,1980,96,1,1.0,0,0,0,0,N,N,25-Apr-89,,0.0,$0.00 ,,"$4,530.00 ","$20,000.00 ","$20,000.00 "
321467,3218444005,"MEGATEL INDUSTRIES, CORPORATIO",AMBLER,PA,19002,NATIONAL PENN BANK,PA,421620,30-Sep-99,1999,6,8,1.0,0,0,1,1,N,N,,,0.0,$0.00 ,,$0.00 ,"$200,000.00 ","$180,000.00 "
321983,3222122003,THE AUSTIN RAINTREE INC,ELGIN,TX,78621,,,0,14-Mar-80,1980,138,1,1.0,0,0,0,0,N,N,27-Apr-89,,0.0,$0.00 ,,"$6,343.00 ","$20,000.00 ","$20,000.00 "
326270,3259014001,GRAPHIC SERVICES INC,MILWAUKEE,WI,53204,JPMORGAN CHASE BANK NATL ASSOC,IL,0,15-Oct-99,2000,78,3,1.0,0,0,1,1,N,N,13-Jun-06,15-Oct-00,0.0,$0.00 ,,"$417,486.00 ","$573,000.00 ","$429,750.00 "
330208,3296842010,STEVENSONS III,FONTANA,WI,53125,,,0,8-Feb-80,1980,120,50,1.0,0,0,0,0,N,N,10-Aug-90,,0.0,$0.00 ,,"$13,288.00 ","$20,000.00 ","$20,000.00 "
330234,3297136006,"J & T LEGEND HOMES ABILENE, LL",ABILENE,TX,79606,"FIRST BANK TEXAS, SSB",TX,236117,26-Jun-08,2008,12,2,2.0,0,2,1,0,Y,N,,,0.0,$0.00 ,,$0.00 ,"$937,300.00 ","$702,975.00 "
336732,3348225003,Donald Dale Garness,GREAT FALLS,MT,59401,FARMERS STATE BANK,MT,484121,23-Mar-09,2009,36,1,2.0,0,1,0,2,N,N,,,0.0,$0.00 ,,$0.00 ,"$50,000.00 ","$25,000.00 "
341422,3381963001,"LEGNA, INC.",STONE MOUNTAIN,GA,30088,WELLS FARGO BANK NATL ASSOC,SD,0,8-Feb-89,1989,84,10,2.0,0,0,0,0,N,N,,30-Apr-89,0.0,$0.00 ,,$0.00 ,"$60,000.00 ","$54,000.00 "
343319,3393742006,ISENHOUR BLUEPRINTING,B,UT,84010,,,0,6-May-80,1980,84,2,1.0,0,0,0,0,N,N,24-May-89,,0.0,$0.00 ,,"$3,242.00 ","$20,000.00 ","$20,000.00 "
348486,3427893000,"SUMMIT MANUFACTURING, INC.",HAZLETON,PA,18201,WELLS FARGO BANK NATL ASSOC,NC,0,21-Apr-89,1989,120,22,1.0,0,0,0,0,N,N,,,0.0,$0.00 ,,$0.00 ,"$300,000.00 ","$225,000.00 "
350066,3437875001,Retirement Fund Properties LLC,LAWRENCE,KS,66047,DOUGLAS COUNTY BANK,KS,531120,27-May-09,2009,60,2,2.0,0,2,0,1,N,N,,,0.0,$0.00 ,,$0.00 ,"$158,000.00 ","$79,000.00 "
351699,3449545004,"Power Freight Services, Inc.",ORLAND PARK,IL,60462,JPMORGAN CHASE BANK NATL ASSOC,IL,488510,3-Jun-09,2009,84,2,2.0,2,4,0,1,Y,N,,,0.0,$0.00 ,,$0.00 ,"$25,000.00 ","$12,500.00 "
352281,3453765003,"David N. Reavis MD, P.C.",SAINT JAMES,NY,11780,JPMORGAN CHASE BANK NATL ASSOC,IL,621111,5-Jun-09,2009,84,4,2.0,2,6,0,1,Y,N,,,0.0,$0.00 ,,$0.00 ,"$25,000.00 ","$12,500.00 "
357238,3489243010,WATTS HOUSE ASSOCIATES,STOWE,VT,5672,"TD BANK, NATIONAL ASSOCIATION",VT,0,25-Jul-89,1989,240,2,1.0,0,0,0,0,N,N,,,0.0,$0.00 ,,$0.00 ,"$85,000.00 ","$63,750.00 "
378864,3662182003,DEL VALLE FLORIST,AUSTIN,TX,78723,,,0,30-Jul-80,1980,96,1,1.0,0,0,0,0,N,N,11-Apr-89,,0.0,$0.00 ,,"$1,967.00 ","$20,000.00 ","$20,000.00 "
385983,3719344008,PARMENTER DAVID & CARLA,WASILLA,AK,99687,WELLS FARGO BANK NATL ASSOC,SD,0,28-Apr-00,2000,84,2,2.0,0,0,1,2,N,N,,,0.0,$0.00 ,,$0.00 ,"$105,000.00 ","$78,750.00 "
406852,3928685008,ExpressMD Urgent Care PLLC,Pflugerville,TX,78660,FROST BANK,TX,621999,23-Feb-10,2010,13,1,2.0,4,1,0,2,N,N,,,0.0,$0.00 ,,$0.00 ,"$200,000.00 ","$100,000.00 "
414582,4006422010,BIO FUELS INC,FREDERICK,SD,57441,,,0,10-Jan-80,1980,120,5,2.0,0,0,0,0,N,N,11-Dec-89,,0.0,$0.00 ,,"$131,197.00 ","$200,000.00 ","$200,000.00 "
415393,4014442005,SBARRO,BOCA RATON,FL,33434,WELLS FARGO BANK NATL ASSOC,NC,0,14-May-80,1980,60,2,2.0,0,0,0,0,N,N,6-Nov-90,17-Nov-80,0.0,$0.00 ,,"$224,464.00 ","$220,000.00 ","$198,000.00 "
418373,4043622010,KACTUS KORNER,GRAND ISLAND,NE,68801,,,0,28-Dec-79,1980,180,1,1.0,0,0,0,0,N,N,12-Apr-89,,0.0,$0.00 ,,"$14,865.00 ","$20,000.00 ","$20,000.00 "
421765,4077924007,MAMA PAULETTA'S,NEW ORLEANS,LA,70122,LIBERTY BANK & TRUST COMPANY,LA,311999,20-Nov-00,2001,120,3,2.0,0,0,1,1,0,Y,17-Aug-06,4-Apr-04,0.0,$0.00 ,,"$45,607.00 ","$51,500.00 ","$41,200.00 "
434334,4209210003,LOUIS GELBER & ELSIE RODRIGUEZ,BROOKLYN,NY,11029,GOVERNMENT DEVEL BK FOR PUERTO,PR,0,28-Feb-67,1967,72,0,0.0,0,0,0,0,N,N,19-May-92,,0.0,$0.00 ,,"$8,023.00 ","$30,000.00 ","$15,000.00 "
437399,4244192008,LETTER PERFECT OFFICE SERVICE,RIVERSIDE,NJ,8065,,,0,2-May-80,1980,72,8,2.0,0,0,0,0,N,N,23-Jul-93,,0.0,$0.00 ,,"$4,010.00 ","$15,000.00 ","$15,000.00 "
440035,4269783000,"FUJI JAPANESE RESTURANT, INC.",WEST HARTFORD,CT,6110,,,0,5-Oct-90,1991,84,2,1.0,0,0,1,0,N,N,,,0.0,$0.00 ,,$0.00 ,"$100,000.00 ","$90,000.00 "
461474,4461465001,"EmploYou, LLC",San Antonio,TX,78205,SECURITY SERVICE FCU,TX,541612,21-Dec-10,2011,12,5,1.0,2,5,0,1,N,,,1-Apr-11,0.0,$0.00 ,,$0.00 ,"$50,000.00 ","$42,500.00 "
469037,4529663007,AMERICAN TRANS WORLD,OAK HILLS,CA,92345,CITIZENS BUSINESS BANK,CA,811111,22-Jul-91,1991,274,1,2.0,0,0,1,0,N,N,,31-Oct-91,0.0,$0.00 ,,$0.00 ,"$723,000.00 ","$614,550.00 "
470599,4542433002,COLE'S TRADITION IN OAK,SPOKANE,WA,99216,NORTHWEST BUS. DEVEL ASSOC,WA,0,2-Aug-91,1991,240,5,1.0,4,1,1,0,N,N,,,0.0,$0.00 ,,$0.00 ,"$137,000.00 ","$137,000.00 "
475182,4579223002,"TECHCON, INC.",NORFOLK,VA,23504,BANK OF HAMPTON ROADS,VA,233210,13-Sep-91,1991,4,6,1.0,0,0,1,0,N,N,,,0.0,$0.00 ,,$0.00 ,"$37,000.00 ","$33,300.00 "
479239,4612653005,MAI GAS STATION & MARKET,SAN JOSE,CA,95110,"WACHOVIA SBA LENDING, INC.",CA,0,21-Oct-91,1992,300,2,1.0,0,0,1,0,N,N,,,0.0,$0.00 ,,$0.00 ,"$567,000.00 ","$481,950.00 "
485590,4670553008,QUADTRONICS CORPORATION,BOW,NH,3304,CITIZENS BANK NATL ASSOC,NH,0,2-Jan-92,1992,12,5,1.0,0,0,1,0,Y,N,,,0.0,$0.00 ,,$0.00 ,"$100,000.00 ","$75,000.00 "
486578,4681153001,"BEULAH LUMBER COMPANY, INC.",BEULAH,ND,58523,FIRST SECURITY BANK-WEST,ND,444130,14-Jan-92,1992,240,9,1.0,0,0,1,0,N,N,,31-Jan-92,0.0,$0.00 ,,$0.00 ,"$145,000.00 ","$130,500.00 "
498485,4823493005,"D & M COMPUTING, INC.",MOORHEAD,MN,56560,FIRST INTERNATL BK & TR,ND,334111,28-Apr-92,1992,132,19,1.0,0,0,1,0,N,N,,31-Oct-92,0.0,$0.00 ,,$0.00 ,"$100,000.00 ","$85,000.00 "
504855,4887253002,MEGOHMETRICS CORPORATION,SYRACUSE,NY,13211,MANUFACTURERS & TRADERS TR CO,NY,0,16-Jun-92,1992,4,9,1.0,0,0,1,0,N,N,,,0.0,$0.00 ,,$0.00 ,"$9,125.00 ","$8,213.00 "
517406,5002073005,FEDERATED & GENERAL INC.,BELLMORE,NY,11710,"CITIBANK, N.A.",NY,0,2-Sep-92,1992,33,8,2.0,0,0,1,0,N,N,17-May-94,,0.0,$0.00 ,,"$20,273.00 ","$25,000.00 ","$22,500.00 "
522582,5062873000,DANIEL ORTEGA CONSTRUCTION CO,LUBBOCK,TX,79407,WELLS FARGO BANK NATL ASSOC,TX,233320,24-Sep-92,1992,12,9,1.0,0,0,1,0,N,N,,,0.0,$0.00 ,,$0.00 ,"$250,000.00 ","$212,500.00 "
525521,5098105008,"Gribben & Associates, Inc.",IRVINE,CA,92612,COMMERCEWEST BANK,CA,541110,29-Feb-12,2012,51,1,1.0,1,1,0,1,Y,N,,1-Jun-12,0.0,$0.00 ,,$0.00 ,"$75,000.00 ","$37,500.00 "
526437,5111354001,BMW OF FRESNO MOTORCYCLES,FRESNO,CA,93726,WELLS FARGO BANK NATL ASSOC,CA,441221,18-Dec-01,2002,60,5,1.0,1,0,1,0,0,N,,31-Dec-01,0.0,$0.00 ,,$0.00 ,"$250,000.00 ","$187,500.00 "
537127,5253901007,OKLAHOMA INVESTMENT CASTING CO,BLACKWELL,OK,74631,RURAL ENTER. OF OKLAHOMA INC.,OK,0,24-May-73,1973,120,1,2.0,0,0,0,0,N,N,,,0.0,$0.00 ,,$0.00 ,"$22,100.00 ","$19,890.00 "
545850,5354683004,METRO AIR,LARGO,FL,34647,FIFTH THIRD BANK,FL,235110,30-Nov-92,1993,180,11,1.0,0,0,1,0,N,N,,,0.0,$0.00 ,,$0.00 ,"$200,000.00 ","$160,000.00 "
545925,5355323003,NAPAVINE TRUE VALUE HARDWARE,NAPAVINE,WA,98565,COLUMBIA STATE BANK,WA,444130,30-Nov-92,1993,90,11,1.0,0,0,1,0,N,N,,,0.0,$0.00 ,,$0.00 ,"$36,000.00 ","$28,800.00 "
558078,5486733008,"GRO-GREEN PRODUCTS, INC.",BUFFALO,NY,14120,JPMORGAN CHASE BANK NATL ASSOC,IL,0,28-Jan-93,1993,12,19,1.0,0,0,1,0,N,N,,,0.0,$0.00 ,,$0.00 ,"$300,000.00 ","$255,000.00 "
563051,5541633006,SUPREME COATINGS-D & S COMACHO,ELGIN,IL,60123,UNION NATIONAL BANK,IL,332813,22-Feb-93,1993,240,26,1.0,0,0,1,0,N,N,,,0.0,$0.00 ,,$0.00 ,"$760,000.00 ","$608,000.00 "
563947,5552422001,CREATIVE COMMERCIAL PHOTOGRAPH,CINCINNATI,OH,45229,,,0,28-Jul-81,1981,221,2,1.0,0,0,0,0,N,N,21-May-91,,0.0,$0.00 ,,"$18,462.00 ","$19,700.00 ","$19,700.00 "
567265,5591074009,D.P. DOUGH,WORCESTER,MA,1602,COMMERCE BANK & TRUST COMPANY,MA,722211,6-Aug-02,2002,60,10,2.0,0,0,24959,2,0,Y,,31-Dec-02,0.0,$0.00 ,,$0.00 ,"$60,000.00 ","$51,000.00 "
569849,5617732002,"LA LINGERIE, INC",GLENDALE,WI,53217,,,0,25-Sep-81,1981,90,2,2.0,0,0,0,0,N,N,4-Nov-91,,0.0,$0.00 ,,"$22,038.00 ","$30,000.00 ","$30,000.00 "
581559,5745373002,"N.H. DIEWORKS, INC.",ROCHESTER,NH,3867,CITIZENS BANK NATL ASSOC,NH,0,7-Jul-93,1993,120,9,1.0,0,0,1,0,N,N,,31-Jan-94,0.0,$0.00 ,,$0.00 ,"$125,000.00 ","$100,000.00 "
615831,6123233006,"LIA'S RESTAURANT & PIZZA, INC.",STRATFORD,CT,6497,,,0,21-Dec-93,1994,216,20,1.0,0,0,1,0,N,N,,,0.0,$0.00 ,,$0.00 ,"$750,000.00 ","$562,500.00 "
615834,6123263004,"UNISOURCE SYSTEMS, INC.",CHICAGO,IL,60604,BMO HARRIS BK NATL ASSOC,IL,541512,21-Dec-93,1994,12,41,1.0,0,0,1,0,N,N,,,0.0,$0.00 ,,$0.00 ,"$350,000.00 ","$262,500.00 "
618837,6150725009,ReneeQuatrano,Watertown,CT,6795,THOMASTON SAVINGS BANK,CT,713940,29-Apr-13,2013,12,1,1.0,0,1,21420,2,N,N,,1-May-13,0.0,$0.00 ,,$0.00 ,"$10,000.00 ","$5,000.00 "
619283,6155233000,"KRYTEN IRON WORKS, INC",BROOKLYN,NY,11222,BANK OF AMERICA NATL ASSOC,NC,0,11-Jan-94,1994,300,12,1.0,0,0,1,0,N,N,,,0.0,$0.00 ,,$0.00 ,"$400,000.00 ","$280,000.00 "
634909,6311494007,HERITAGE INN,EVANS,CO,80620,PREMIER BANK,CO,721110,12-May-03,2003,300,1,1.0,8,0,1,2,0,N,,,0.0,$0.00 ,,$0.00 ,"$1,850,000.00 ","$1,000,000.00 "
665162,6741404002,FORGE CONSULTING LLC,BUFFALO,NY,14203,HSBC BK USA NATL ASSOC,NY,423930,30-Sep-03,2003,84,11,2.0,0,11,1,1,0,N,,,0.0,$0.00 ,,$0.00 ,"$240,000.00 ","$180,000.00 "
667567,6778514004,"PACIFIC HANDY CUTTER, INC.",COSTA MESA,CA,92626,CDC SMALL BUS. FINAN CORP,CA,332211,9-Oct-03,2004,240,50,1.0,10,0,1,1,N,N,,,0.0,$0.00 ,,$0.00 ,"$988,000.00 ","$988,000.00 "
670014,6824504003,EDWIN BOWERMAN PROPERTIES LLC,QUINCY,MI,49082,CENTURY BANK AND TRUST,MI,531120,22-Oct-03,2004,180,2,1.0,0,2,1,2,0,N,,,0.0,$0.00 ,,$0.00 ,"$250,000.00 ","$125,000.00 "
683481,7058260002,PRINCESS MANUFACTURING COMPANY,AUXIER KENTUCKY,KY,41602,CITIZENS NATL BK OF PAINTSVILL,KY,0,20-Jul-67,1968,120,100,0.0,0,0,0,0,N,N,6-Jan-89,,0.0,$0.00 ,,"$34,131.00 ","$183,000.00 ","$137,250.00 "
689069,7136810008,CHARLENE R PAYNE,BOGALUSA,LA,70427,WHITNEY BANK,MS,0,25-Apr-67,1967,228,4,0.0,0,0,0,0,N,N,15-Mar-89,,0.0,$0.00 ,,"$9,915.00 ","$45,000.00 ","$40,500.00 "
690649,7155763000,"INNOVATIVE BIOTECHNOLOGIES,INC",NIAGARA FALLS,NY,14304,MANUFACTURERS & TRADERS TR CO,NY,325414,20-Jun-94,1994,12,5,2.0,0,0,1,0,N,N,,,0.0,$0.00 ,,$0.00 ,"$100,000.00 ","$75,000.00 "
697046,7236091010,SUNWAY CORPORATION,PITTSBURGH,PA,15229,,,0,3-Jan-80,1980,90,2,1.0,0,0,0,0,N,N,28-Aug-89,,0.0,$0.00 ,,"$440,896.00 ","$350,000.00 ","$350,000.00 "
706125,7343781000,STUMP HOME SPECIALTIES MFG.,SOUTH BEND,IN,46614,WELLS FARGO BANK NATL ASSOC,IN,0,20-Dec-77,1978,84,7,1.0,0,0,0,0,N,N,3-Apr-92,6-Apr-78,0.0,$0.00 ,,$0.00 ,"$270,000.00 ","$243,000.00 "
718707,7482241002,HALEAKA FASHION INC,HONOLULU,HI,96814,BANK OF HAWAII,HI,0,30-May-75,1975,96,15,1.0,0,0,0,0,N,N,25-Aug-89,,0.0,$0.00 ,,$0.00 ,"$95,000.00 ","$71,250.00 "
720025,7495133006,RIGNEY FEED & FARM SUPPLY,WINFIELD,TX,75493,"TRIUMPH SAVINGS BANK, SSB",TX,112112,19-Aug-94,1994,126,2,1.0,0,0,1,0,N,N,,31-Oct-94,0.0,$0.00 ,,$0.00 ,"$50,000.00 ","$45,000.00 "
728458,7579393000,"ENVOY NATIONWIDE, INC.",MECHANICSVILLE,VA,23111,BANK OF AMERICA NATL ASSOC,VA,0,15-Sep-94,1994,48,12,1.0,0,0,1,0,N,Y,,,0.0,$0.00 ,,$0.00 ,"$30,000.00 ","$27,000.00 "
736046,7654123001,STAR CARWASH,PERTH AMBOY,NJ,8861,BANCO POPULAR NORTH AMERICA,NY,811192,6-Oct-94,1995,180,5,1.0,0,0,1,0,N,N,,1-Mar-95,0.0,$0.00 ,,$0.00 ,"$180,000.00 ","$135,000.00 "
738410,7676700000,HUBERT W HARBER,BOONVILLE,MS,38829,RENASANT BANK,MS,0,31-Jan-69,1969,270,3,0.0,0,0,0,0,N,N,1-Sep-90,,0.0,$0.00 ,,"$2,608.00 ","$22,500.00 ","$16,875.00 "
739801,7691063006,GAIL F AND FREDDIE E. PARKER,GRAHAM,NC,27253,"PNC BANK, NATIONAL ASSOCIATION",NC,624410,20-Oct-94,1995,240,5,1.0,0,0,1,0,N,N,,31-Jan-95,0.0,$0.00 ,,$0.00 ,"$275,000.00 ","$206,250.00 "
745755,7764283004,"EARTH WASTE SYSTEMS, INC.",MORRISONVILLE,NY,12962,"TD BANK, NATIONAL ASSOCIATION",VT,421930,7-Nov-94,1995,240,5,1.0,0,0,1,0,N,0,,,0.0,$0.00 ,,$0.00 ,"$455,000.00 ","$318,500.00 "
746377,7774651009,CAMDEN PHARMACY INC.,MINNEAPOLIS,MN,55412,WELLS FARGO BANK NATL ASSOC,MN,0,17-Feb-76,1976,96,4,1.0,0,0,0,0,N,N,26-Jul-89,,0.0,$0.00 ,,$834.00 ,"$58,000.00 ","$43,500.00 "
750086,7827803003,"FILTRATION PRODUCTS, INC.",NORTH TONAWANDA,NY,14120,KEYBANK NATIONAL ASSOCIATION,NY,0,22-Nov-94,1995,240,17,1.0,0,0,1,0,N,N,,,0.0,$0.00 ,,$0.00 ,"$644,000.00 ","$483,000.00 "
750306,7830253005,WIRZ FRANCHISE GROUP INC,KNOXVILLE,TN,37909,SUNTRUST BANK,GA,0,22-Nov-94,1995,60,12,2.0,0,0,1,0,N,Y,,31-Oct-95,0.0,$0.00 ,,$0.00 ,"$65,000.00 ","$58,500.00 "
751772,7852593003,BELLOTT FARMS,MONTICELLO,AR,71655,UNION BANK & TRUST COMPANY,AR,112310,30-Nov-94,1995,120,2,2.0,0,0,1,0,N,N,,31-Jan-95,0.0,$0.00 ,,$0.00 ,"$160,000.00 ","$136,000.00 "
754058,7887883007,TONY'S PIZZA & STEAKHOUSE,MONTGOMERY,AL,36104,USAMERIBANK,FL,0,8-Dec-94,1995,60,11,1.0,0,0,1,0,N,Y,,,0.0,$0.00 ,,$0.00 ,"$74,384.00 ","$66,946.00 "
768193,8084053006,FORMAL AFFAIRS,NEWARK,DE,19711,WILMINGTON TRUST COMPANY,DE,0,14-Feb-95,1995,60,7,1.0,0,0,1,0,,N,,,0.0,$0.00 ,,$0.00 ,"$160,000.00 ","$136,000.00 "
771993,8148023008,"DESIGN WORKSHOP, INC.",SPRINGFIELD,MA,1118,UNITED BANK,MA,541430,7-Mar-95,1995,84,4,2.0,0,0,1,0,,Y,,,0.0,$0.00 ,,$0.00 ,"$25,000.00 ","$22,500.00 "
772010,8148290009,BOIVINS SUPER MARKET & OIL CO,NEOPIT,WI,54150,BMO HARRIS BK NATL ASSOC,IL,0,9-Oct-70,1971,216,6,1.0,0,0,0,0,N,N,17-Jul-89,,0.0,$0.00 ,,"$49,139.00 ","$155,000.00 ","$116,250.00 "
774035,8177040003,DOUBLE DECKER DRIVE IN,LACONIA NEW HAMPSHIRE,NH,3246,CITIZENS BANK NATL ASSOC,NH,0,29-Jun-71,1971,180,30,1.0,0,0,0,0,N,N,23-May-90,,0.0,$0.00 ,,$670.00 ,"$160,000.00 ","$120,000.00 "
777562,8227923005,"DAVID V. NENNA, M.D., P.A.",FLEMINGTON,NJ,8822,"TD BANK, NATIONAL ASSOCIATION",NJ,0,3-Apr-95,1995,120,7,1.0,0,0,1,0,0,N,,31-Oct-96,0.0,$0.00 ,,$0.00 ,"$100,000.00 ","$70,000.00 "
780333,8263153007,DOMINO'S PIZZA,ALBERTVILLE,MN,55301,WELLS FARGO BANK NATL ASSOC,MN,0,14-Apr-95,1995,60,3,2.0,0,0,24850,0,N,Y,,,0.0,$0.00 ,,$0.00 ,"$50,000.00 ","$45,000.00 "
782076,8289003006,P J'S COFFEE AND TEA,FAYETTEVILLE,AR,72703,BANK OF ARKANSAS A DIVISION OF,AR,0,25-Apr-95,1995,84,7,2.0,0,0,65250,0,N,Y,,,0.0,$0.00 ,,$0.00 ,"$79,100.00 ","$71,190.00 "
783862,8312241004,ALTAS CORPORATION,SANTA CRUZ,CA,95060,,,0,9-Jul-80,1980,64,12,1.0,0,0,0,0,N,N,15-Mar-93,,0.0,$0.00 ,,"$12,352.00 ","$50,000.00 ","$50,000.00 "
783864,8312321004,TROUTT ENTERPRISES,SAN FRANCISCO,CA,94118,,,0,11-Jul-80,1980,84,5,2.0,0,0,0,0,N,N,10-Jul-91,,0.0,$0.00 ,,"$18,235.00 ","$20,000.00 ","$20,000.00 "
783921,8313451010,JUDY HAWTHORNE SECRETARIAL SER,SAN FRANCISCO,CA,94102,,,0,18-Sep-80,1980,132,1,1.0,0,0,0,0,N,N,14-Nov-94,,0.0,$0.00 ,,$41.00 ,"$20,000.00 ","$20,000.00 "
787322,8358543009,NIA'S HALLMARK,KANSAS CITY,MO,64128,BANK OF AMERICA NATL ASSOC,NC,0,22-May-95,1995,84,7,1.0,0,0,36560,0,0,N,,31-Oct-95,0.0,$0.00 ,,$0.00 ,"$25,000.00 ","$12,500.00 "
789600,8391283005,QUALITY AUTOMATED MACHINERY IN,OSHKOSH,WI,54901,"M&I, A BRANCH OF",WI,0,3-Jun-95,1995,60,2,2.0,0,0,1,0,N,Y,,,0.0,$0.00 ,,$0.00 ,"$25,000.00 ","$22,500.00 "
797399,8521833003,"$1.25 DRY CLEAN CENTER, INC.",RICHARDSON,TX,75062,WELLS FARGO BANK NATL ASSOC,SD,812320,19-Jul-95,1995,270,6,2.0,0,0,1,0,0,N,,,0.0,$0.00 ,,$0.00 ,"$500,000.00 ","$350,000.00 "
798765,8542733007,KIDDIE ACADEMY INTERNATIONAL,FREEHOLD,NJ,7728,"FIRST WESTERN SBLC, INC",TX,624410,26-Jul-95,1995,84,11,1.0,0,0,1,0,N,Y,,,0.0,$0.00 ,,$0.00 ,"$80,500.00 ","$72,450.00 "
799851,8560753006,RHODES SPECIALIZED TRANSPORTAT,LAFAYETTE,LA,70501,CAPITAL ONE NATL ASSOC,VA,0,2-Aug-95,1995,60,5,1.0,0,0,1,0,N,Y,,,0.0,$0.00 ,,$0.00 ,"$45,000.00 ","$40,500.00 "
805299,8629673005,"JONES, RANDY & DEBBIE",JERUSALEM,AR,72080,FIRST FINANCIAL BANK,AR,112210,31-Aug-95,1995,156,2,2.0,0,0,1,0,N,N,,,0.0,$0.00 ,,$0.00 ,"$429,900.00 ","$322,425.00 "
806753,8645943003,BLUE HAIL WOMEN SEWING,MISSION,SD,57555,WELLS FARGO BANK NATL ASSOC,SD,0,8-Sep-95,1995,60,1,2.0,0,0,1,0,N,N,,,0.0,$0.00 ,,$0.00 ,"$34,106.00 ","$30,695.00 "
809900,8678064002,UPLAND 76,UPLAND,CA,91786,SOUTHLAND ECONOMIC DEVEL CORP,CA,447110,7-Mar-05,2005,240,1,2.0,0,1,1,1,0,N,,,0.0,$0.00 ,,$0.00 ,"$1,048,000.00 ","$1,048,000.00 "
810982,8688833005,INTERACTIVE VIDEO SOLUTIONS,MEDIA,PA,19063,WACHOVIA CORPORATION,NC,532420,28-Sep-95,1995,36,4,1.0,0,0,1,0,N,N,,,0.0,$0.00 ,,$0.00 ,"$75,000.00 ","$67,500.00 "
814603,8730853005,"CLASSIC TRAVEL SERVICES, INC.",COLUMBUS,OH,43232,FIFTH THIRD BANK,OH,561510,23-Oct-95,1996,84,2,2.0,0,0,1,0,N,Y,,,0.0,$0.00 ,,$0.00 ,"$50,000.00 ","$40,000.00 "
814673,8731503007,"STA-BRITE CARPET CARE, INC.",STATEN ISLAND,NY,10301,JPMORGAN CHASE BANK NATL ASSOC,IL,0,23-Oct-95,1996,60,2,1.0,0,0,1,0,0,N,,,0.0,$0.00 ,,$0.00 ,"$50,000.00 ","$25,000.00 "
818187,8770753004,CRESTON SUPERMARKET CORP,BRONK,NY,10468,JPMORGAN CHASE BANK NATL ASSOC,IL,0,3-Nov-95,1996,24,9,1.0,0,0,1,0,0,N,,,0.0,$0.00 ,,$0.00 ,"$25,000.00 ","$12,500.00 "
819133,8783323003,"EDUCATIONAL ACHIEVEMENTS, INC.",BISMARCK,ND,58501,STARION FINANCIAL,ND,611110,8-Nov-95,1996,84,6,2.0,0,0,79902,0,N,Y,,,0.0,$0.00 ,,$0.00 ,"$64,000.00 ","$51,200.00 "
820338,8799033004,"TOOLING SOLUTIONS, INC",SAN DIEGO,CA,92126,CDC SMALL BUS. FINAN CORP,CA,421830,13-Nov-95,1996,240,12,1.0,8,12,1,0,N,N,,,0.0,$0.00 ,,$0.00 ,"$290,000.00 ","$290,000.00 "
821331,8814793008,"VICOMP, INC",ROCHESTER,NY,14611,KEYBANK NATIONAL ASSOCIATION,NY,0,22-Nov-95,1996,36,5,2.0,0,0,1,0,N,Y,,,0.0,$0.00 ,,$0.00 ,"$20,000.00 ","$16,000.00 "
823365,8835951004,BANTAS AND MOMS GROCERY,PARIS,KY,40361,"TRADITIONAL BANK, INC.",KY,0,30-Aug-79,1979,180,4,1.0,0,0,0,0,N,N,25-Aug-92,,0.0,$0.00 ,,$408.00 ,"$42,000.00 ","$31,500.00 "
823798,8840113007,THUMBS UP,ELDORADO,TX,76936,WELLS FARGO BANK NATL ASSOC,TX,0,8-Mar-96,1996,84,3,1.0,0,0,1,0,N,Y,,,0.0,$0.00 ,,$0.00 ,"$94,000.00 ","$75,200.00 "
824763,8850153001,RALMARI PARKING,NEW YORK,NY,10019,JPMORGAN CHASE BANK NATL ASSOC,IL,812930,1-Dec-95,1996,60,1,1.0,0,0,1,0,0,N,,,0.0,$0.00 ,,$0.00 ,"$20,000.00 ","$10,000.00 "
825600,8859063005,COAST AEROSPACE FABRICATORS,GARDEN GROVE,CA,92643,SUNWEST BANK,CA,0,5-Dec-95,1996,84,15,1.0,0,0,1,0,N,Y,,,0.0,$0.00 ,,$0.00 ,"$100,000.00 ","$80,000.00 "
829075,8895613001,CENTRAL WISCONSIN MACHINE CO,WAUSAU,WI,54401,PEOPLES STATE BANK,WI,0,15-Dec-95,1996,120,2,1.0,0,0,1,0,N,Y,,,0.0,$0.00 ,,$0.00 ,"$100,000.00 ","$80,000.00 "
832034,8932563010,PACK 'N' MAIL MAILING CENTER A,OSWEGO,NY,13126,HSBC BK USA NATL ASSOC,NY,0,16-Jan-96,1996,84,8,1.0,0,0,42580,0,N,Y,,,0.0,$0.00 ,,$0.00 ,"$30,000.00 ","$24,000.00 "
833319,8944083005,INJECTION TECH. DIESEL SVC.INC,NORTHWOOD,IA,50459,FARMERS STATE BANK,IA,811111,19-Jan-96,1996,60,5,1.0,0,0,1,0,N,Y,,,0.0,$0.00 ,,$0.00 ,"$64,200.00 ","$51,360.00 "
841267,9018513009,"GRANER SCHOOL MUSIC, INC.",COLORADO SPRINGS,CO,80917,WELLS FARGO BANK NATL ASSOC,SD,451140,20-Feb-96,1996,300,20,1.0,0,0,1,0,0,N,,,0.0,$0.00 ,,$0.00 ,"$974,000.00 ","$730,500.00 "
843004,9037413009,"TEXAS REFRIGERATION, INC.",FORT WORTH,TX,76117,BANK OF AMERICA NATL ASSOC,NC,234110,26-Feb-96,1996,12,11,1.0,0,0,1,0,0,N,,,0.0,$0.00 ,,$0.00 ,"$75,000.00 ","$37,500.00 "
851585,9130913000,"INTECH MECHANICAL COMPANY,INC.",NORTH HIGHLANDS,CA,95660,BANK OF AMERICA CALIFORNIA N.A,CA,235110,26-Mar-96,1996,84,8,2.0,0,0,1,0,0,N,,,0.0,$0.00 ,,$0.00 ,"$100,000.00 ","$80,000.00 "
854511,9169121004,HOME ENERGY CORP,ANCHORAGE,AK,99503,,,0,29-Aug-79,1979,120,1,2.0,0,0,0,0,N,N,15-Jun-89,,0.0,$0.00 ,,"$34,217.00 ","$65,000.00 ","$65,000.00 "
856726,9200523008,RAMADA INN,COLBY,KS,67701,TRANSAMERICA SMALL BUS. CAPITA,SC,0,17-Apr-96,1996,300,50,2.0,0,0,68250,0,0,N,,,0.0,$0.00 ,,$0.00 ,"$1,500,000.00 ","$750,000.00 "
857298,9208603002,LAI XING,FARMINGTON,MN,55024,ANCHOR BANK NATL ASSOC,MN,0,19-Apr-96,1996,84,5,2.0,0,0,1,0,N,Y,,,0.0,$0.00 ,,$0.00 ,"$50,000.00 ","$40,000.00 "
862172,9280363007,NORTHLAND WOODS INSPECTION DEP,BONNERS FERRY,ID,83805,WELLS FARGO BANK NATL ASSOC,SD,0,16-May-96,1996,120,1,1.0,0,0,1,0,N,Y,,,0.0,$0.00 ,,$0.00 ,"$80,000.00 ","$64,000.00 "
863760,9304763004,QUALITY ASSURANCE CONSULTANTS,WOBURN,MA,1801,PEOPLE'S UNITED BANK,MA,0,28-May-96,1996,60,5,1.0,0,0,1,0,N,Y,,,0.0,$0.00 ,,$0.00 ,"$50,000.00 ","$40,000.00 "
866661,9345013009,PARADISE COFFEE COMPANY,CAMERON PARK,CA,95682,AMERICAN RIVER BANK,CA,0,14-Jun-96,1996,84,1,2.0,0,0,1,0,N,Y,,,0.0,$0.00 ,,$0.00 ,"$60,000.00 ","$48,000.00 "
868343,9367163009,"D SQUARE SYSTEMS, INC.",HOUSTON,TX,77061,EAST WEST BANK,TX,561621,25-Jun-96,1996,180,1,1.0,0,0,1,0,0,N,,,0.0,$0.00 ,,$0.00 ,"$85,000.00 ","$68,000.00 "
872441,9424133008,JOHNSON COMMUNICATIONS AND ELE,JACKSON,MS,39212,TRUSTMARK NATIONAL BANK,MS,0,26-Jul-96,1996,84,35,1.0,0,0,1,0,N,N,,,0.0,$0.00 ,,$0.00 ,"$300,000.00 ","$225,000.00 "
875154,9459433004,LEARNING EXPRESS,MOUNT AIRY,MD,21771,NEWTEK SMALL BUS. FINANCE INC.,NY,451120,15-Aug-96,1996,120,5,2.0,0,0,1,0,N,N,,31-Oct-96,0.0,$0.00 ,,$0.00 ,"$166,000.00 ","$124,500.00 "
875227,9460723005,INOV8 INTERNATIONAL INC,LA CROSSE,WI,54601,PARK BANK,WI,333994,15-Aug-96,1996,102,2,1.0,0,0,1,0,N,Y,,,0.0,$0.00 ,,$0.00 ,"$100,000.00 ","$80,000.00 "
875538,9468071002,LORNE F. & HELEN L. HOLTMEIER,SALEM,OR,97302,"SECURITY NTL PARTNERS, A LTD",LA,0,3-Jul-80,1980,267,6,2.0,0,0,0,0,N,N,1-Aug-95,25-Aug-80,0.0,$0.00 ,,$0.00 ,"$85,000.00 ","$76,500.00 "
877882,9510723004,"TELE NET, INC.",LOS ANGELES,CA,90064,NATIONAL BANK OF CALIFORNIA,CA,0,4-Sep-96,1996,300,8,1.0,0,0,1,0,0,N,,,0.0,$0.00 ,,$0.00 ,"$319,500.00 ","$239,625.00 "
879528,9544481010,MORLEY SUPERMKT. & VARIETY STO,MORLEY,MI,49336,MERCANTILE BANK OF MICHIGAN,MI,0,10-May-78,1978,120,28,1.0,0,0,0,0,N,N,25-Feb-91,,0.0,$0.00 ,,"$89,611.00 ","$100,000.00 ","$90,000.00 "
884653,9667413003,ALAN R. FINSTON,BLAINE,WA,98230,U.S. BANK NATIONAL ASSOCIATION,OH,0,17-Oct-96,1997,84,2,2.0,0,0,1,0,N,Y,,,0.0,$0.00 ,,$0.00 ,"$50,000.00 ","$40,000.00 "
885904,9708013009,GATTO BROTHERS PAVING,NEWTOWN SQUARE,PA,19073,"TD BANK, NATIONAL ASSOCIATION",PA,234110,29-Oct-96,1997,84,2,1.0,0,0,1,0,N,Y,,,0.0,$0.00 ,,$0.00 ,"$40,000.00 ","$32,000.00 "
888537,9772941008,INTERNATIONAL PREHEATER COMPAN,SEATTLE,WA,98188,,,0,14-Mar-79,1979,84,5,1.0,0,0,0,0,N,N,9-Dec-93,,0.0,$0.00 ,,"$196,974.00 ","$350,000.00 ","$350,000.00 "
892340,9855003006,PATHCO,ALAMEDA,CA,94605,WELLS FARGO BANK NATL ASSOC,SD,0,19-Dec-96,1997,84,1,1.0,0,0,1,0,0,N,,,0.0,$0.00 ,,$0.00 ,"$50,000.00 ","$25,000.00 "
898182,9974823008,ROUND ROCK CHIROPRACTIC,ROUND ROCK,TX,78681,COMPASS BANK,AL,621310,19-Feb-97,1997,84,2,1.0,0,0,1,0,0,N,,29-Jan-99,0.0,$0.00 ,,$0.00 ,"$105,000.00 ","$78,750.00 "
